[{"OBJECT_NAME":"YAOGAN-43 01H","OBJECT_ID":"2024-148H","EPOCH":"2026-03-10T00:13:57.702432","MEAN_MOTION":15.25826805,"ECCENTRICITY":0.000635,"INCLINATION":34.994,"RA_OF_ASC_NODE":64.6147,"ARG_OF_PERICENTER":359.2394,"MEAN_ANOMALY":0.8311,"EPHEMERIS_TYPE":0,"CLASSIFICATION_TYPE":"U","NORAD_CAT_ID":60465,"ELEMENT_SET_NO":999,"REV_AT_EPOCH":8702,"BSTAR":0.00039232254,"MEAN_MOTION_DOT":0.00010268,"MEAN_MOTION_DDOT":0},{"OBJECT_NAME":"STARLINK-36408","OBJECT_ID":"2026-008AE","EPOCH":"2026-03-09T09:07:25.848192","MEAN_MOTION":15.27602816,"ECCENTRICITY":0.00022677,"INCLINATION":42.9933,"RA_OF_ASC_NODE":207.0577,"ARG_OF_PERICENTER":173.6156,"MEAN_ANOMALY":186.4724,"EPHEMERIS_TYPE":0,"CLASSIFICATION_TYPE":"U","NORAD_CAT_ID":67473,"ELEMENT_SET_NO":999,"REV_AT_EPOCH":952,"BSTAR":0.0012043824,"MEAN_MOTION_DOT":0.00033053,"MEAN_MOTION_DDOT":0}]
